OBJECT_NAME,OBJECT_ID,EPOCH,MEAN_MOTION,ECCENTRICITY,INCLINATION,RA_OF_ASC_NODE,ARG_OF_PERICENTER,MEAN_ANOMALY,EPHEMERIS_TYPE,CLASSIFICATION_TYPE,NORAD_CAT_ID,ELEMENT_SET_NO,REV_AT_EPOCH,BSTAR,MEAN_MOTION_DOT,MEAN_MOTION_DDOT
SHIJIAN-17 (SJ-17),2016-065A,2026-07-03T18:21:23.637888,0.99861406,.000215,5.7921,72.4074,37.3238,298.4941,0,U,41838,999,3536,0,.131E-5,0
GOES 16,2016-071A,2026-07-05T03:04:40.730880,1.00271840,.00005051,0.3821,85.6748,50.8917,88.0478,0,U,41866,999,3528,0,-.78E-6,0
TIANLIAN 1-04,2016-072A,2026-07-05T14:40:46.218720,1.00268906,.0044027,0.9150,82.8561,90.2024,147.5622,0,U,41869,999,3548,0,.44E-6,0
WGS F8 (USA 272),2016-075A,2026-07-04T21:26:38.711040,1.00269507,.00001223,0.0488,62.9947,313.2074,18.2156,0,U,41879,999,3499,0,0,0
FENGYUN 4A,2016-077A,2026-07-05T05:52:22.694304,1.00274475,.00080068,2.3656,80.0895,157.9112,257.1046,0,U,41882,999,3511,0,-.344E-5,0
ECHOSTAR 19,2016-079A,2026-07-05T04:49:26.965920,1.00271536,.0001471,0.0191,37.9272,70.1251,150.4199,0,U,41893,999,3488,0,-.125E-5,0
JCSAT-110A (JCSAT-15),2016-082A,2026-07-05T00:40:37.998912,1.00270125,.00006501,0.0192,29.5788,89.5381,284.1355,0,U,41903,999,3493,0,-.338E-5,0
STAR ONE D1,2016-082B,2026-07-05T03:10:32.668320,1.00267472,.00021385,0.0476,66.4758,54.2648,126.0659,0,U,41904,999,3495,0,0,0
TJS-2,2017-001A,2026-07-05T03:53:32.675136,1.00273220,.00008484,0.8768,85.1112,68.8463,254.1597,0,U,41911,999,3489,0,.6E-7,0
SBIRS GEO-4 (USA 273),2017-004A,2026-07-05T05:23:10.492800,1.00285996,.00028747,2.2753,43.7225,61.3002,280.2388,0,U,41937,999,3477,0,.139E-5,0
HISPASAT 36W-1,2017-006A,2026-07-05T00:36:10.139904,1.00270151,.0001107,0.0408,219.8977,246.6619,149.5073,0,U,41942,999,3442,0,-.232E-5,0
TELKOM 3S,2017-007A,2026-07-04T23:00:13.866048,1.00268834,.00023194,0.0146,24.3672,83.1267,278.5357,0,U,41944,999,3431,0,0,0
INTELSAT 32E (IS-32E),2017-007B,2026-07-05T04:06:32.580288,1.00276571,.00008407,0.0170,17.7536,346.9082,296.9814,0,U,41945,999,3440,0,0,0
ECHOSTAR 23,2017-014A,2026-07-05T03:03:10.874016,1.00265603,.00020469,0.0186,30.4059,84.3717,104.2480,0,U,42070,999,3410,0,-.43E-6,0
WGS F9 (USA 275),2017-016A,2026-07-05T01:48:23.573376,1.00268399,.00005099,0.0192,16.9280,142.5068,138.7473,0,U,42075,999,3407,0,0,0
SES-10,2017-017A,2026-07-05T03:40:04.808352,1.00272316,.00029542,0.0158,37.0217,74.0529,160.2115,0,U,42432,999,3393,0,-.26E-5,0
CHINASAT 16 (SJ-13),2017-018A,2026-07-05T00:40:45.487200,1.00271417,.00043482,0.0920,88.9793,133.5632,181.2015,0,U,42662,999,3392,0,-.339E-5,0
KOREASAT 7,2017-023A,2026-07-05T00:42:07.855776,1.00272714,.00005833,0.0192,355.9045,125.3227,288.2031,0,U,42691,999,3354,0,-.349E-5,0
SGDC,2017-023B,2026-07-04T10:09:45.492480,1.00272761,.00025194,0.0153,4.4998,104.4600,251.0656,0,U,42692,999,3358,0,-.237E-5,0
GSAT-9,2017-024A,2026-07-05T03:45:38.643264,1.00271618,.0002181,0.0631,91.8295,22.9059,322.1533,0,U,42695,999,3347,0,-.273E-5,0
INMARSAT 5-F4,2017-025A,2026-07-05T03:50:40.449696,1.00269822,.00003595,0.0225,39.1540,165.4229,192.7653,0,U,42698,999,3345,0,0,0
SES-15,2017-026A,2026-07-05T04:40:22.994976,1.00274474,.00009382,0.0234,325.8516,176.7364,81.5560,0,U,42709,999,761,0,.72E-6,0
QZS-2 (MICHIBIKI-2),2017-028A,2026-07-03T11:21:38.748096,1.00279734,.0758569,39.4029,242.9137,269.4566,81.7440,0,U,42738,999,778,0,-.107E-5,0
VIASAT-2,2017-029A,2026-07-05T05:41:56.377248,1.00272406,.00002891,0.0247,286.8365,182.6414,189.3741,0,U,42740,999,3338,0,-.252E-5,0
EUTELSAT 172B,2017-029B,2026-07-04T21:33:00.600768,1.00271604,.00001058,0.0293,124.9412,315.6737,337.5407,0,U,42741,999,3391,0,.7E-7,0
GSAT-19,2017-031A,2026-07-05T03:48:10.689984,1.00271893,.00067754,0.0160,63.0714,19.6797,305.3364,0,U,42747,999,3332,0,.138E-5,0
ECHOSTAR 21,2017-032A,2026-07-05T05:20:03.291648,1.00270995,.00023844,1.7699,356.8273,97.3030,279.3649,0,U,42749,999,3328,0,.78E-6,0
BULGARIASAT-1,2017-038A,2026-07-05T05:17:41.020224,1.00271921,.00030741,0.0305,281.5904,188.2980,254.6365,0,U,42801,999,3302,0,.24E-6,0
HELLAS-SAT 3,2017-040A,2026-07-05T03:45:40.929408,1.00273106,.00038479,0.0553,52.5874,12.9566,313.0341,0,U,42814,999,3298,0,.165E-5,0
GSAT-17,2017-040B,2026-07-05T02:20:38.700960,1.00270100,.00015701,0.0466,88.9726,182.0734,140.7007,0,U,42815,999,3296,0,-.244E-5,0
INTELSAT 35E (IS-35E),2017-041A,2026-07-05T04:26:47.021280,1.00273037,.00018962,0.0192,36.9619,63.7045,214.7243,0,U,42818,999,3299,0,-.225E-5,0
COSMOS 2520,2017-046A,2026-07-04T20:56:46.167648,1.00280896,.00005866,0.0403,106.0683,271.9245,264.0804,0,U,42907,999,3257,0,.149E-5,0
