SHIJIAN-17 (SJ-17)      
1 41838U 16065A   26184.76485692  .00000131  00000+0  00000+0 0  9993
2 41838   5.7921  72.4074 0002150  37.3238 298.4941  0.99861406 35365
GOES 16                 
1 41866U 16071A   26186.12824920 -.00000078  00000+0  00000+0 0  9995
2 41866   0.3821  85.6748 0000505  50.8917  88.0478  1.00271840 35285
TIANLIAN 1-04           
1 41869U 16072A   26186.61164605  .00000044  00000+0  00000+0 0  9992
2 41869   0.9150  82.8561 0044027  90.2024 147.5622  1.00268906 35488
WGS F8 (USA 272)        
1 41879U 16075A   26185.89350360  .00000000  00000+0  00000+0 0  9992
2 41879   0.0488  62.9947 0000122 313.2074  18.2156  1.00269507 34991
FENGYUN 4A              
1 41882U 16077A   26186.24470711 -.00000344  00000+0  00000+0 0  9993
2 41882   2.3656  80.0895 0008006 157.9112 257.1046  1.00274475 35112
ECHOSTAR 19             
1 41893U 16079A   26186.20100655 -.00000125  00000+0  00000+0 0  9997
2 41893   0.0191  37.9272 0001471  70.1251 150.4199  1.00271536 34884
JCSAT-110A (JCSAT-15)   
1 41903U 16082A   26186.02821758 -.00000338  00000+0  00000+0 0  9993
2 41903   0.0192  29.5788 0000650  89.5381 284.1355  1.00270125 34930
STAR ONE D1             
1 41904U 16082B   26186.13232255  .00000000  00000+0  00000+0 0  9999
2 41904   0.0476  66.4758 0002138  54.2648 126.0659  1.00267472 34955
TJS-2                   
1 41911U 17001A   26186.16218374  .00000006  00000+0  00000+0 0  9994
2 41911   0.8768  85.1112 0000848  68.8463 254.1597  1.00273220 34894
SBIRS GEO-4 (USA 273)   
1 41937U 17004A   26186.22442700  .00000139  00000+0  00000+0 0  9991
2 41937   2.2753  43.7225 0002874  61.3002 280.2388  1.00285996 34773
HISPASAT 36W-1          
1 41942U 17006A   26186.02511736 -.00000232  00000+0  00000+0 0  9998
2 41942   0.0408 219.8977 0001107 246.6619 149.5073  1.00270151 34429
TELKOM 3S               
1 41944U 17007A   26185.95849382  .00000000  00000+0  00000+0 0  9995
2 41944   0.0146  24.3672 0002319  83.1267 278.5357  1.00268834 34311
INTELSAT 32E (IS-32E)   
1 41945U 17007B   26186.17121042  .00000000  00000+0  00000+0 0  9997
2 41945   0.0170  17.7536 0000840 346.9082 296.9814  1.00276571 34405
ECHOSTAR 23             
1 42070U 17014A   26186.12720919 -.00000043  00000+0  00000+0 0  9996
2 42070   0.0186  30.4059 0002046  84.3717 104.2480  1.00265603 34103
WGS F9 (USA 275)        
1 42075U 17016A   26186.07527284  .00000000  00000+0  00000+0 0  9999
2 42075   0.0192  16.9280 0000509 142.5068 138.7473  1.00268399 34073
SES-10                  
1 42432U 17017A   26186.15283343 -.00000260  00000+0  00000+0 0  9990
2 42432   0.0158  37.0217 0002954  74.0529 160.2115  1.00272316 33934
CHINASAT 16 (SJ-13)     
1 42662U 17018A   26186.02830425 -.00000339  00000+0  00000+0 0  9998
2 42662   0.0920  88.9793 0004348 133.5632 181.2015  1.00271417 33927
KOREASAT 7              
1 42691U 17023A   26186.02925759 -.00000349  00000+0  00000+0 0  9992
2 42691   0.0192 355.9045 0000583 125.3227 288.2031  1.00272714 33548
SGDC                    
1 42692U 17023B   26185.42344320 -.00000237  00000+0  00000+0 0  9991
2 42692   0.0153   4.4998 0002519 104.4600 251.0656  1.00272761 33580
GSAT-9                  
1 42695U 17024A   26186.15669726 -.00000273  00000+0  00000+0 0  9996
2 42695   0.0631  91.8295 0002181  22.9059 322.1533  1.00271618 33473
INMARSAT 5-F4           
1 42698U 17025A   26186.16019039  .00000000  00000+0  00000+0 0  9994
2 42698   0.0225  39.1540 0000359 165.4229 192.7653  1.00269822 33456
SES-15                  
1 42709U 17026A   26186.19471059  .00000072  00000+0  00000+0 0  9994
2 42709   0.0234 325.8516 0000938 176.7364  81.5560  1.00274474  7615
QZS-2 (MICHIBIKI-2)     
1 42738U 17028A   26184.47336514 -.00000107  00000+0  00000+0 0  9993
2 42738  39.4029 242.9137 0758569 269.4566  81.7440  1.00279734  7788
VIASAT-2                
1 42740U 17029A   26186.23745807 -.00000252  00000+0  00000+0 0  9993
2 42740   0.0247 286.8365 0000289 182.6414 189.3741  1.00272406 33387
EUTELSAT 172B           
1 42741U 17029B   26185.89792362  .00000007  00000+0  00000+0 0  9990
2 42741   0.0293 124.9412 0000105 315.6737 337.5407  1.00271604 33911
GSAT-19                 
1 42747U 17031A   26186.15845706  .00000138  00000+0  00000+0 0  9995
2 42747   0.0160  63.0714 0006775  19.6797 305.3364  1.00271893 33324
ECHOSTAR 21             
1 42749U 17032A   26186.22226032  .00000078  00000+0  00000+0 0  9994
2 42749   1.7699 356.8273 0002384  97.3030 279.3649  1.00270995 33282
BULGARIASAT-1           
1 42801U 17038A   26186.22061366  .00000024  00000+0  00000+0 0  9997
2 42801   0.0305 281.5904 0003074 188.2980 254.6365  1.00271921 33026
HELLAS-SAT 3            
1 42814U 17040A   26186.15672372  .00000165  00000+0  00000+0 0  9997
2 42814   0.0553  52.5874 0003847  12.9566 313.0341  1.00273106 32983
GSAT-17                 
1 42815U 17040B   26186.09767015 -.00000244  00000+0  00000+0 0  9999
2 42815   0.0466  88.9726 0001570 182.0734 140.7007  1.00270100 32966
INTELSAT 35E (IS-35E)   
1 42818U 17041A   26186.18526645 -.00000225  00000+0  00000+0 0  9994
2 42818   0.0192  36.9619 0001896  63.7045 214.7243  1.00273037 32999
COSMOS 2520             
1 42907U 17046A   26185.87275657  .00000149  00000+0  00000+0 0  9991
2 42907   0.0403 106.0683 0000586 271.9245 264.0804  1.00280896 32579
